start=new Date('2021-11-19T00:00:00.000Z').valueOf();
sats=[{"MEAN_MOTION_DOT":"-0.00873951","COUNTRY_CODE":"US","SITE":"AFETR","TIME_SYSTEM":"UTC","OBJECT_TYPE":"PAYLOAD","FILE":"3218669","REV_AT_EPOCH":"148","EPOCH":"2021-11-18T22:00:00.999936","NORAD_CAT_ID":"49415","GP_ID":"190040432","DECAY_DATE":null,"APOAPSIS":"328.029","MEAN_MOTION":"15.93120700","RA_OF_ASC_NODE":"107.2345","SEMIMAJOR_AXIS":"6671.693","TLE_LINE1":"1 49415U 21104H   21322.91667824 -.00873951  24260-3 -21221-2 0  9996","PERIOD":"90.389","REF_FRAME":"TEME","INCLINATION":"53.2171","OBJECT_ID":"2021-104H","ELEMENT_SET_NO":"999","BSTAR":"-0.00212210000000","OBJECT_NAME":"STARLINK-3159","ECCENTRICITY":"0.00516680","MEAN_MOTION_DDOT":"0.0002426000000","CENTER_NAME":"EARTH","LAUNCH_DATE":"2021-11-13","EPHEMERIS_TYPE":"0","ARG_OF_PERICENTER":"58.3041","CLASSIFICATION_TYPE":"U","RCS_SIZE":null,"TLE_LINE2":"2 49415  53.2171 107.2345 0051668  58.3041  89.1548 15.93120700  1489","MEAN_ELEMENT_THEORY":"SGP4","MEAN_ANOMALY":"89.1548","PERIAPSIS":"259.087"},{"CLASSIFICATION_TYPE":"U","TLE_LINE2":"2 49416  53.2171 107.2350 0051651  58.3432  88.6520 15.93086067  1483","RCS_SIZE":null,"MEAN_ELEMENT_THEORY":"SGP4","PERIAPSIS":"259.194","MEAN_ANOMALY":"88.6520","PERIOD":"90.391","TLE_LINE1":"1 49416U 21104J   21322.91667824 -.00873749  24241-3 -21259-2 0  9992","REF_FRAME":"TEME","SEMIMAJOR_AXIS":"6671.790","MEAN_MOTION":"15.93086067","RA_OF_ASC_NODE":"107.2350","ELEMENT_SET_NO":"999","INCLINATION":"53.2171","OBJECT_ID":"2021-104J","CENTER_NAME":"EARTH","MEAN_MOTION_DDOT":"0.0002424100000","ECCENTRICITY":"0.00516510","OBJECT_NAME":"STARLINK-3133","BSTAR":"-0.00212590000000","ARG_OF_PERICENTER":"58.3432","LAUNCH_DATE":"2021-11-13","EPHEMERIS_TYPE":"0","REV_AT_EPOCH":"148","EPOCH":"2021-11-18T22:00:00.999936","DECAY_DATE":null,"APOAPSIS":"328.115","GP_ID":"190041303","NORAD_CAT_ID":"49416","MEAN_MOTION_DOT":"-0.00873749","COUNTRY_CODE":"US","TIME_SYSTEM":"UTC","SITE":"AFETR","FILE":"3218669","OBJECT_TYPE":"PAYLOAD"},{"PERIAPSIS":"259.031","MEAN_ANOMALY":"89.8519","MEAN_ELEMENT_THEORY":"SGP4","TLE_LINE2":"2 49417  53.2171 107.2330 0051546  58.4033  89.8519 15.93170153  1484","RCS_SIZE":null,"CLASSIFICATION_TYPE":"U","ARG_OF_PERICENTER":"58.4033","EPHEMERIS_TYPE":"0","LAUNCH_DATE":"2021-11-13","CENTER_NAME":"EARTH","MEAN_MOTION_DDOT":"0.0002429700000","ECCENTRICITY":"0.00515460","OBJECT_NAME":"STARLINK-3154","BSTAR":"-0.00211880000000","ELEMENT_SET_NO":"999","INCLINATION":"53.2171","OBJECT_ID":"2021-104K","PERIOD":"90.386","TLE_LINE1":"1 49417U 21104K   21322.91667824 -.00874458  24297-3 -21188-2 0  9993","REF_FRAME":"TEME","SEMIMAJOR_AXIS":"6671.555","MEAN_MOTION":"15.93170153","RA_OF_ASC_NODE":"107.2330","DECAY_DATE":null,"APOAPSIS":"327.809","GP_ID":"190040557","NORAD_CAT_ID":"49417","EPOCH":"2021-11-18T22:00:00.999936","REV_AT_EPOCH":"148","FILE":"3218669","OBJECT_TYPE":"PAYLOAD","TIME_SYSTEM":"UTC","SITE":"AFETR","COUNTRY_CODE":"US","MEAN_MOTION_DOT":"-0.00874458"},{"RCS_SIZE":null,"TLE_LINE2":"2 49418  53.2171 107.2336 0051371  58.3291  89.3713 15.93137882  1485","CLASSIFICATION_TYPE":"U","PERIAPSIS":"259.237","MEAN_ANOMALY":"89.3713","MEAN_ELEMENT_THEORY":"SGP4","ELEMENT_SET_NO":"999","OBJECT_ID":"2021-104L","INCLINATION":"53.2171","SEMIMAJOR_AXIS":"6671.645","REF_FRAME":"TEME","TLE_LINE1":"1 49418U 21104L   21322.91667824 -.00874328  24283-3 -21242-2 0  9996","PERIOD":"90.388","MEAN_MOTION":"15.93137882","RA_OF_ASC_NODE":"107.2336","ARG_OF_PERICENTER":"58.3291","LAUNCH_DATE":"2021-11-13","EPHEMERIS_TYPE":"0","MEAN_MOTION_DDOT":"0.0002428300000","CENTER_NAME":"EARTH","BSTAR":"-0.00212420000000","ECCENTRICITY":"0.00513710","OBJECT_NAME":"STARLINK-3111","REV_AT_EPOCH":"148","APOAPSIS":"327.783","DECAY_DATE":null,"NORAD_CAT_ID":"49418","GP_ID":"190040998","EPOCH":"2021-11-18T22:00:00.999936","COUNTRY_CODE":"US","MEAN_MOTION_DOT":"-0.00874328","OBJECT_TYPE":"PAYLOAD","FILE":"3218669","TIME_SYSTEM":"UTC","SITE":"AFETR"},{"LAUNCH_DATE":"2021-11-13","EPHEMERIS_TYPE":"0","ARG_OF_PERICENTER":"58.3289","OBJECT_NAME":"STARLINK-3120","ECCENTRICITY":"0.00515200","BSTAR":"-0.00211600000000","CENTER_NAME":"EARTH","MEAN_MOTION_DDOT":"0.0002431700000","INCLINATION":"53.2171","OBJECT_ID":"2021-104M","ELEMENT_SET_NO":"999","MEAN_MOTION":"15.93201501","RA_OF_ASC_NODE":"107.2319","PERIOD":"90.384","TLE_LINE1":"1 49419U 21104M   21322.91667824 -.00874716  24317-3 -21160-2 0  9995","REF_FRAME":"TEME","SEMIMAJOR_AXIS":"6671.467","PERIAPSIS":"258.961","MEAN_ANOMALY":"90.5201","MEAN_ELEMENT_THEORY":"SGP4","TLE_LINE2":"2 49419  53.2171 107.2319 0051520  58.3289  90.5201 15.93201501  1486","RCS_SIZE":null,"CLASSIFICATION_TYPE":"U","FILE":"3218669","OBJECT_TYPE":"PAYLOAD","SITE":"AFETR","TIME_SYSTEM":"UTC","COUNTRY_CODE":"US","MEAN_MOTION_DOT":"-0.00874716","GP_ID":"190040748","NORAD_CAT_ID":"49419","APOAPSIS":"327.704","DECAY_DATE":null,"EPOCH":"2021-11-18T22:00:00.999936","REV_AT_EPOCH":"148"},{"REV_AT_EPOCH":"148","EPOCH":"2021-11-18T22:00:00.999936","DECAY_DATE":null,"APOAPSIS":"327.915","NORAD_CAT_ID":"49420","GP_ID":"190041122","MEAN_MOTION_DOT":"-0.00874263","COUNTRY_CODE":"US","TIME_SYSTEM":"UTC","SITE":"AFETR","OBJECT_TYPE":"PAYLOAD","FILE":"3218669","CLASSIFICATION_TYPE":"U","RCS_SIZE":null,"TLE_LINE2":"2 49420  53.2171 107.2332 0051638  58.3365  89.6249 15.93154357  1485","MEAN_ELEMENT_THEORY":"SGP4","PERIAPSIS":"259.013","MEAN_ANOMALY":"89.6249","SEMIMAJOR_AXIS":"6671.599","REF_FRAME":"TEME","TLE_LINE1":"1 49420U 21104N   21322.91667824 -.00874263  24283-3 -21192-2 0  9991","PERIOD":"90.387","RA_OF_ASC_NODE":"107.2332","MEAN_MOTION":"15.93154357","ELEMENT_SET_NO":"999","INCLINATION":"53.2171","OBJECT_ID":"2021-104N","MEAN_MOTION_DDOT":"0.0002428300000","CENTER_NAME":"EARTH","BSTAR":"-0.00211920000000","ECCENTRICITY":"0.00516380","OBJECT_NAME":"STARLINK-3110","ARG_OF_PERICENTER":"58.3365","EPHEMERIS_TYPE":"0","LAUNCH_DATE":"2021-11-13"},{"PERIAPSIS":"258.634","MEAN_ANOMALY":"91.1782","MEAN_ELEMENT_THEORY":"SGP4","TLE_LINE2":"2 49421  53.2171 107.2309 0051871  58.1807  91.1782 15.93234793  1481","RCS_SIZE":null,"CLASSIFICATION_TYPE":"U","EPHEMERIS_TYPE":"0","LAUNCH_DATE":"2021-11-13","ARG_OF_PERICENTER":"58.1807","OBJECT_NAME":"STARLINK-3112","ECCENTRICITY":"0.00518710","BSTAR":"-0.00210870000000","CENTER_NAME":"EARTH","MEAN_MOTION_DDOT":"0.0002433400000","INCLINATION":"53.2171","OBJECT_ID":"2021-104P","ELEMENT_SET_NO":"999","MEAN_MOTION":"15.93234793","RA_OF_ASC_NODE":"107.2309","TLE_LINE1":"1 49421U 21104P   21322.91667824 -.00874895  24334-3 -21087-2 0  9993","REF_FRAME":"TEME","PERIOD":"90.382","SEMIMAJOR_AXIS":"6671.374","GP_ID":"190040872","NORAD_CAT_ID":"49421","APOAPSIS":"327.845","DECAY_DATE":null,"EPOCH":"2021-11-18T22:00:00.999936","REV_AT_EPOCH":"148","FILE":"3218669","OBJECT_TYPE":"PAYLOAD","SITE":"AFETR","TIME_SYSTEM":"UTC","COUNTRY_CODE":"US","MEAN_MOTION_DOT":"-0.00874895"},{"ARG_OF_PERICENTER":"58.2762","EPHEMERIS_TYPE":"0","LAUNCH_DATE":"2021-11-13","MEAN_MOTION_DDOT":"0.0002431800000","CENTER_NAME":"EARTH","BSTAR":"-0.00212090000000","ECCENTRICITY":"0.00512520","OBJECT_NAME":"STARLINK-3161","ELEMENT_SET_NO":"999","INCLINATION":"53.2171","OBJECT_ID":"2021-104Q","SEMIMAJOR_AXIS":"6671.510","PERIOD":"90.385","TLE_LINE1":"1 49422U 21104Q   21322.91667824 -.00874807  24318-3 -21209-2 0  9995","REF_FRAME":"TEME","MEAN_MOTION":"15.93186414","RA_OF_ASC_NODE":"107.2321","MEAN_ANOMALY":"90.2556","PERIAPSIS":"259.182","MEAN_ELEMENT_THEORY":"SGP4","RCS_SIZE":null,"TLE_LINE2":"2 49422  53.2171 107.2321 0051252  58.2762  90.2556 15.93186414  1485","CLASSIFICATION_TYPE":"U","OBJECT_TYPE":"PAYLOAD","FILE":"3218669","TIME_SYSTEM":"UTC","SITE":"AFETR","COUNTRY_CODE":"US","MEAN_MOTION_DOT":"-0.00874807","DECAY_DATE":null,"APOAPSIS":"327.567","NORAD_CAT_ID":"49422","GP_ID":"190041179","EPOCH":"2021-11-18T22:00:00.999936","REV_AT_EPOCH":"148"},{"MEAN_ANOMALY":"91.5148","PERIAPSIS":"258.696","MEAN_ELEMENT_THEORY":"SGP4","TLE_LINE2":"2 49423  53.2171 107.2300 0051636  58.3160  91.5148 15.93268990  1483","RCS_SIZE":null,"CLASSIFICATION_TYPE":"U","LAUNCH_DATE":"2021-11-13","EPHEMERIS_TYPE":"0","ARG_OF_PERICENTER":"58.3160","ECCENTRICITY":"0.00516360","OBJECT_NAME":"STARLINK-3149","BSTAR":"-0.00210780000000","CENTER_NAME":"EARTH","MEAN_MOTION_DDOT":"0.0002435500000","OBJECT_ID":"2021-104R","INCLINATION":"53.2171","ELEMENT_SET_NO":"999","MEAN_MOTION":"15.93268990","RA_OF_ASC_NODE":"107.2300","TLE_LINE1":"1 49423U 21104R   21322.91667824 -.00875138  24355-3 -21078-2 0  9999","PERIOD":"90.380","REF_FRAME":"TEME","SEMIMAJOR_AXIS":"6671.279","GP_ID":"190040433","NORAD_CAT_ID":"49423","DECAY_DATE":null,"APOAPSIS":"327.592","EPOCH":"2021-11-18T22:00:00.999936","REV_AT_EPOCH":"148","FILE":"3218669","OBJECT_TYPE":"PAYLOAD","SITE":"AFETR","TIME_SYSTEM":"UTC","COUNTRY_CODE":"US","MEAN_MOTION_DOT":"-0.00875138"},{"RCS_SIZE":null,"TLE_LINE2":"2 49424  53.2171 107.2313 0051876  58.4080  90.5993 15.93220410  1488","CLASSIFICATION_TYPE":"U","PERIAPSIS":"258.671","MEAN_ANOMALY":"90.5993","MEAN_ELEMENT_THEORY":"SGP4","ELEMENT_SET_NO":"999","OBJECT_ID":"2021-104S","INCLINATION":"53.2171","SEMIMAJOR_AXIS":"6671.415","PERIOD":"90.383","TLE_LINE1":"1 49424U 21104S   21322.91667824 -.00874589  24316-3 -21096-2 0  9996","REF_FRAME":"TEME","MEAN_MOTION":"15.93220410","RA_OF_ASC_NODE":"107.2313","ARG_OF_PERICENTER":"58.4080","EPHEMERIS_TYPE":"0","LAUNCH_DATE":"2021-11-13","MEAN_MOTION_DDOT":"0.0002431600000","CENTER_NAME":"EARTH","BSTAR":"-0.00210960000000","ECCENTRICITY":"0.00518760","OBJECT_NAME":"STARLINK-3135","REV_AT_EPOCH":"148","APOAPSIS":"327.888","DECAY_DATE":null,"NORAD_CAT_ID":"49424","GP_ID":"190041304","EPOCH":"2021-11-18T22:00:00.999936","COUNTRY_CODE":"US","MEAN_MOTION_DOT":"-0.00874589","OBJECT_TYPE":"PAYLOAD","FILE":"3218669","TIME_SYSTEM":"UTC","SITE":"AFETR"}];
